{
  "type": "FeatureCollection",
  "features": [
    {"type":"Feature","geometry":{"type":"LineString","coordinates":[[10,10],[180,10]]},"properties":{"id":"wall_top","feature_type":"wall","source":"manual","floor":"1"}},
    {"type":"Feature","geometry":{"type":"Polygon","coordinates":[[[20,20],[90,20],[90,90],[20,90],[20,20]]]},"properties":{"id":"room_101","feature_type":"room","label":"Room 101","floor":"1"}},
    {"type":"Feature","geometry":{"type":"Point","coordinates":[90,55]},"properties":{"id":"door_101","feature_type":"door","source":"manual","floor":"1"}},
    {"type":"Feature","geometry":{"type":"Point","coordinates":[170,55]},"properties":{"id":"exit_east","feature_type":"exit","label":"East Exit","floor":"1"}}
  ]
}
